[{"OBJECT_NAME":"PRAETORIAN SDA_610","OBJECT_ID":"2025-203J","EPOCH":"2026-03-09T13:44:25.913760","MEAN_MOTION":13.840113,"ECCENTRICITY":0.0007844,"INCLINATION":81.2976,"RA_OF_ASC_NODE":103.001,"ARG_OF_PERICENTER":103.3116,"MEAN_ANOMALY":256.8916,"EPHEMERIS_TYPE":0,"CLASSIFICATION_TYPE":"U","NORAD_CAT_ID":65573,"ELEMENT_SET_NO":999,"REV_AT_EPOCH":2491,"BSTAR":5.8921e-5,"MEAN_MOTION_DOT":7.7e-7,"MEAN_MOTION_DDOT":0},{"OBJECT_NAME":"FENGYUN 1C DEB","OBJECT_ID":"1999-025KN","EPOCH":"2026-03-09T13:06:09.772416","MEAN_MOTION":14.03020206,"ECCENTRICITY":0.01313263,"INCLINATION":98.3718,"RA_OF_ASC_NODE":269.1411,"ARG_OF_PERICENTER":23.8094,"MEAN_ANOMALY":336.9076,"EPHEMERIS_TYPE":0,"CLASSIFICATION_TYPE":"U","NORAD_CAT_ID":29964,"ELEMENT_SET_NO":999,"REV_AT_EPOCH":97534,"BSTAR":0.00097565648,"MEAN_MOTION_DOT":1.596e-5,"MEAN_MOTION_DDOT":0}]
